CTC2_L_00049016-03
1 10062U 25007YX  26075.70040509  .00000000  00000+0  00000-0 0  9997
2 10062  55.0000 180.0000 0000000   0.0000   0.0000 15.48880433    15
CTC2_L_00049016-04
1 10063U 22113OT  26075.70040509  .00000000  00000+0  00000-0 0  9993
2 10063  55.0000 180.0000 0000000   0.0000  90.0000 15.48880433    15
CTC2_L_00049017-01
1 10064U 26961PM  26075.70040509  .00000000  00000+0  00000-0 0  9999
2 10064  55.0000 192.0000 0000000   0.0000 192.0000 15.48880433    12
CTC2_L_00049017-02
1 10065U 25785VR  26075.70040509  .00000000  00000+0  00000-0 0  9993
2 10065  55.0000 192.0000 0000000   0.0000 282.0000 15.48880433    13
CTC2_L_00049017-03
1 10066U 23499MO  26075.70040509  .00000000  00000+0  00000-0 0  9994
2 10066  55.0000 192.0000 0000000   0.0000  12.0000 15.48880433    15
CTC2_L_00049017-04
1 10067U 24563EF  26075.70040509  .00000000  00000+0  00000-0 0  9998
2 10067  55.0000 192.0000 0000000   0.0000 102.0000 15.48880433    16
CTC2_L_00049018-01
1 10068U 26022CE  26075.70040509  .00000000  00000+0  00000-0 0  9991
2 10068  55.0000 204.0000 0000000   0.0000 204.0000 15.48880433    14
CTC2_L_00049018-02
1 10069U 23943XZ  26075.70040509  .00000000  00000+0  00000-0 0  9991
2 10069  55.0000 204.0000 0000000   0.0000 294.0000 15.48880433    14
CTC2_L_00049018-03
1 10070U 23502NU  26075.70040509  .00000000  00000+0  00000-0 0  9994
2 10070  55.0000 204.0000 0000000   0.0000  24.0000 15.48880433    17
CTC2_L_00049018-04
1 10071U 24359CX  26075.70040509  .00000000  00000+0  00000-0 0  9996
2 10071  55.0000 204.0000 0000000   0.0000 114.0000 15.48880433    18
CTC2_L_00049019-01
1 10072U 22390QU  26075.70040509  .00000000  00000+0  00000-0 0  9990
2 10072  55.0000 216.0000 0000000   0.0000 216.0000 15.48880433    15
CTC2_L_00049019-02
1 10073U 24713QS  26075.70040509  .00000000  00000+0  00000-0 0  9992
2 10073  55.0000 216.0000 0000000   0.0000 306.0000 15.48880433    16
CTC2_L_00049019-03
1 10074U 24592MN  26075.70040509  .00000000  00000+0  00000-0 0  9998
2 10074  55.0000 216.0000 0000000   0.0000  36.0000 15.48880433    17
CTC2_L_00049019-04
1 10075U 23917TG  26075.70040509  .00000000  00000+0  00000-0 0  9999
2 10075  55.0000 216.0000 0000000   0.0000 126.0000 15.48880433    18
CTC2_L_00049020-01
1 10076U 24995KG  26075.70040509  .00000000  00000+0  00000-0 0  9997
2 10076  55.0000 228.0000 0000000   0.0000 228.0000 15.48880433    15
CTC2_L_00049020-02
1 10077U 23880HZ  26075.70040509  .00000000  00000+0  00000-0 0  9990
2 10077  55.0000 228.0000 0000000   0.0000 318.0000 15.48880433    16
CTC2_L_00049020-03
1 10078U 23716IJ  26075.70040509  .00000000  00000+0  00000-0 0  9999
2 10078  55.0000 228.0000 0000000   0.0000  48.0000 15.48880433    17
CTC2_L_00049020-04
1 10079U 22960DB  26075.70040509  .00000000  00000+0  00000-0 0  9990
2 10079  55.0000 228.0000 0000000   0.0000 138.0000 15.48880433    18
CTC2_L_00049021-01
1 10080U 26647BF  26075.70040509  .00000000  00000+0  00000-0 0  9998
2 10080  55.0000 240.0000 0000000   0.0000 240.0000 15.48880433    18
CTC2_L_00049021-02
1 10081U 23337YR  26075.70040509  .00000000  00000+0  00000-0 0  9992
2 10081  55.0000 240.0000 0000000   0.0000 330.0000 15.48880433    19
CTC2_L_00049021-03
1 10082U 25059WF  26075.70040509  .00000000  00000+0  00000-0 0  9996
2 10082  55.0000 240.0000 0000000   0.0000  60.0000 15.48880433    10
CTC2_L_00049021-04
1 10083U 24838YL  26075.70040509  .00000000  00000+0  00000-0 0  9991
2 10083  55.0000 240.0000 0000000   0.0000 150.0000 15.48880433    11
CTC2_L_00049022-01
1 10084U 25885IX  26075.70040509  .00000000  00000+0  00000-0 0  9995
2 10084  55.0000 252.0000 0000000   0.0000 252.0000 15.48880433    18
CTC2_L_00049022-02
1 10085U 25514PS  26075.70040509  .00000000  00000+0  00000-0 0  9995
2 10085  55.0000 252.0000 0000000   0.0000 342.0000 15.48880433    19
CTC2_L_00049022-03
1 10086U 22736HG  26075.70040509  .00000000  00000+0  00000-0 0  9999
2 10086  55.0000 252.0000 0000000   0.0000  72.0000 15.48880433    10
CTC2_L_00049022-04
1 10087U 22023WG  26075.70040509  .00000000  00000+0  00000-0 0  9999
2 10087  55.0000 252.0000 0000000   0.0000 162.0000 15.48880433    11
CTC2_L_00049023-01
1 10088U 22393JH  26075.70040509  .00000000  00000+0  00000-0 0  9990
2 10088  55.0000 264.0000 0000000   0.0000 264.0000 15.48880433    18
CTC2_L_00049023-02
1 10089U 22318QL  26075.70040509  .00000000  00000+0  00000-0 0  9998
2 10089  55.0000 264.0000 0000000   0.0000 354.0000 15.48880433    19
CTC2_L_00049023-03
1 10090U 23372NG  26075.70040509  .00000000  00000+0  00000-0 0  9991
2 10090  55.0000 264.0000 0000000   0.0000  84.0000 15.48880433    11
CTC2_L_00049023-04
1 10091U 24264TA  26075.70040509  .00000000  00000+0  00000-0 0  9993
2 10091  55.0000 264.0000 0000000   0.0000 174.0000 15.48880433    12
CTC2_L_00049024-01
1 10092U 23028BR  26075.70040509  .00000000  00000+0  00000-0 0  9991
2 10092  55.0000 276.0000 0000000   0.0000 276.0000 15.48880433    19
CTC2_L_00049024-02
1 10093U 26525XU  26075.70040509  .00000000  00000+0  00000-0 0  9997
2 10093  55.0000 276.0000 0000000   0.0000   6.0000 15.48880433    11
CTC2_L_00049024-03
1 10094U 22856QZ  26075.70040509  .00000000  00000+0  00000-0 0  9991
2 10094  55.0000 276.0000 0000000   0.0000  96.0000 15.48880433    11
CTC2_L_00049024-04
1 10095U 25067F   26075.70040509  .00000000  00000+0  00000-0 0  9999
2 10095  55.0000 276.0000 0000000   0.0000 186.0000 15.48880433    12
CTC2_L_00049025-01
1 10096U 26473RO  26075.70040509  .00000000  00000+0  00000-0 0  9992
2 10096  55.0000 288.0000 0000000   0.0000 288.0000 15.48880433    19
CTC2_L_00049025-02
1 10097U 24579SA  26075.70040509  .00000000  00000+0  00000-0 0  9998
2 10097  55.0000 288.0000 0000000   0.0000  18.0000 15.48880433    11
CTC2_L_00049025-03
1 10098U 24983ZF  26075.70040509  .00000000  00000+0  00000-0 0  9998
2 10098  55.0000 288.0000 0000000   0.0000 108.0000 15.48880433    12
CTC2_L_00049025-04
1 10099U 25421JD  26075.70040509  .00000000  00000+0  00000-0 0  9997
2 10099  55.0000 288.0000 0000000   0.0000 198.0000 15.48880433    12
CTC2_L_00049026-01
1 10100U 25901HS  26075.70040509  .00000000  00000+0  00000-0 0  9993
2 10100  55.0000 300.0000 0000000   0.0000 300.0000 15.48880433    15
CTC2_L_00049026-02
1 10101U 26025RC  26075.70040509  .00000000  00000+0  00000-0 0  9992
2 10101  55.0000 300.0000 0000000   0.0000  30.0000 15.48880433    16
CTC2_L_00049026-03
1 10102U 23942FP  26075.70040509  .00000000  00000+0  00000-0 0  9998
2 10102  55.0000 300.0000 0000000   0.0000 120.0000 15.48880433    17
CTC2_L_00049026-04
1 10103U 23374J   26075.70040509  .00000000  00000+0  00000-0 0  9998
2 10103  55.0000 300.0000 0000000   0.0000 210.0000 15.48880433    18
CTC2_L_00049027-01
1 10104U 25157IE  26075.70040509  .00000000  00000+0  00000-0 0  9990
2 10104  55.0000 312.0000 0000000   0.0000 312.0000 15.48880433    15
CTC2_L_00049027-02
1 10105U 22456XL  26075.70040509  .00000000  00000+0  00000-0 0  9990
2 10105  55.0000 312.0000 0000000   0.0000  42.0000 15.48880433    16
CTC2_L_00049027-03
1 10106U 26312HA  26075.70040509  .00000000  00000+0  00000-0 0  9996
2 10106  55.0000 312.0000 0000000   0.0000 132.0000 15.48880433    17
CTC2_L_00049027-04
1 10107U 26915OQ  26075.70040509  .00000000  00000+0  00000-0 0  9996
2 10107  55.0000 312.0000 0000000   0.0000 222.0000 15.48880433    18
CTC2_L_00049028-01
1 10108U 22053EL  26075.70040509  .00000000  00000+0  00000-0 0  9996
2 10108  55.0000 324.0000 0000000   0.0000 324.0000 15.48880433    15
CTC2_L_00049028-02
1 10109U 26943TT  26075.70040509  .00000000  00000+0  00000-0 0  9999
2 10109  55.0000 324.0000 0000000   0.0000  54.0000 15.48880433    16
CTC2_L_00049028-03
1 10110U 26497YB  26075.70040509  .00000000  00000+0  00000-0 0  9995
2 10110  55.0000 324.0000 0000000   0.0000 144.0000 15.48880433    18
CTC2_L_00049028-04
1 10111U 22751IJ  26075.70040509  .00000000  00000+0  00000-0 0  9995
2 10111  55.0000 324.0000 0000000   0.0000 234.0000 15.48880433    19
CTC2_L_00049029-01
1 10112U 22841LA  26075.70040509  .00000000  00000+0  00000-0 0  9996
2 10112  55.0000 336.0000 0000000   0.0000 336.0000 15.48880433    16
CTC2_L_00049029-02
1 10113U 26834DI  26075.70040509  .00000000  00000+0  00000-0 0  9993
2 10113  55.0000 336.0000 0000000   0.0000  66.0000 15.48880433    17
CTC2_L_00049029-03
1 10114U 23376CE  26075.70040509  .00000000  00000+0  00000-0 0  9992
2 10114  55.0000 336.0000 0000000   0.0000 156.0000 15.48880433    18
CTC2_L_00049029-04
1 10115U 25337OC  26075.70040509  .00000000  00000+0  00000-0 0  9992
2 10115  55.0000 336.0000 0000000   0.0000 246.0000 15.48880433    19
CTC2_L_00049030-01
1 10116U 22598JM  26075.70040509  .00000000  00000+0  00000-0 0  9999
2 10116  55.0000 348.0000 0000000   0.0000 348.0000 15.48880433    16
CTC2_L_00049030-02
1 10117U 23233LX  26075.70040509  .00000000  00000+0  00000-0 0  9997
2 10117  55.0000 348.0000 0000000   0.0000  78.0000 15.48880433    17
CTC2_L_00049030-03
1 10118U 25171RP  26075.70040509  .00000000  00000+0  00000-0 0  9991
2 10118  55.0000 348.0000 0000000   0.0000 168.0000 15.48880433    18
CTC2_L_00049030-04
1 10119U 23579SP  26075.70040509  .00000000  00000+0  00000-0 0  9992
2 10119  55.0000 348.0000 0000000   0.0000 258.0000 15.48880433    19
